    AK20A010  2019 12  2.5835  1.669684  0.932278  302.6051  119.2917  149.0350  20201112  18.0  2.0  A/2020 A1                                                MPEC 2020-K19
    CK20A020  2020 01  8.3438  0.977945  0.999305   68.2141  286.3783  120.7477  20201112  13.5  4.0  C/2020 A2 (Iwamoto)                                      MPEC 2020-UR0
    CK20A030  2019 07 29.6407  5.839467  1.024985  271.1666  120.3774  146.7768  20201112   8.0  4.0  C/2020 A3 (ATLAS)                                        MPEC 2020-L06
    AK20B010  2019 12 25.9164  1.747376  0.966329  154.7718  310.0351   18.5125  20201112  21.0  2.0  A/2020 B1                                                MPEC 2020-N08
    CK20B020  2020 01 26.6476  2.769018  0.960047  143.7484  354.3220   55.7417  20201112  10.0  4.0  C/2020 B2 (Lemmon)                                       MPEC 2020-HN5
    CK20B030  2019 10 19.8045  3.344309  0.997816  325.0777  185.8267   20.7045  20201112  13.0  4.0  C/2020 B3 (Rankin)                                       MPEC 2020-UR0
    CK20F020  2022 07 16.6484  8.816949  1.002572   48.3731  250.2510  163.5755  20201112   4.5  4.0  C/2020 F2 (ATLAS)                                        MPEC 2020-L06
    CK20F030  2020 07  3.6792  0.294627  0.999182   37.2773   61.0115  128.9333  20201112   7.5  5.2  C/2020 F3 (NEOWISE)                                      MPEC 2020-UR0
    CK20F050  2021 03 23.9856  4.326775  1.002209  311.0221  350.6260   51.7013  20201112   6.5  3.2  C/2020 F5 (MASTER)                                       MPEC 2020-L06
    CK20F050  2021 03 24.1733  4.326240  1.002763  311.0479  350.6373   51.7031  20201112   6.5  3.2  C/2020 F5 (MASTER)                                       MPEC 2020-UR0
    CK20F060  2020 04 11.6100  3.511050  0.990775  344.6004  207.8814  174.5816  20201112  14.5  2.8  C/2020 F6 (PANSTARRS)                                    MPEC 2020-L06
    AK20F070  2021 11 14.1203  5.331695  0.993131  227.9879  321.8862   93.9512  20201112  12.0  2.0  A/2020 F7                                                MPEC 2020-UR0
    CK20F080  2020 05 27.5670  0.430370  0.998427   68.2213  260.0075  110.7927  20201112  10.0  4.0  C/2020 F8 (SWAN)                                         MPEC 2020-KB7
    PK20G010  2020 03 17.4069  0.505903  0.859919  207.6636  240.0934   18.4767  20201112  17.0  4.0  P/2020 G1 (Pimentel)                                     MPEC 2020-L06
    CK20H020  2020 04 27.5935  0.833666  0.995523   26.6977  277.6366  125.0431  20201112  18.0  4.0  C/2020 H2 (Pruyne)                                       MPEC 2020-L06
    CK20H030  2020 06  5.7161  2.300288  1.000000   30.4456  270.6227   62.5292            13.5  4.0  C/2020 H3 (Wierzchos)                                    MPEC 2020-HM1
    CK20H040  2020 08 29.5180  0.927215  0.980759  117.6124  307.7367   84.5147  20201112  15.0  3.2  C/2020 H4 (Leonard)                                      MPEC 2020-L06
    CK20H050  2020 11 14.8813  9.367435  0.991338  325.0642  210.6003   70.2490  20201112   5.0  4.0  C/2020 H5 (Robinson)                                     MPEC 2020-L06
    CK20H060  2021 09 30.9428  4.704780  1.000883   20.3122  213.6988   79.9640  20201112   8.0  3.2  C/2020 H6 (ATLAS)                                        MPEC 2020-L06
    CK20H070  2020 06  2.9509  4.419545  0.996854   82.6780  323.5194  135.9235            11.0  4.0  C/2020 H7 (Lemmon)                                       MPEC 2020-KB7
    CK20H080  2020 06  6.7206  4.678446  1.000000  129.2192   68.3225   99.7116            10.5  4.0  C/2020 H8 (PANSTARRS)                                    MPEC 2020-KB7
    AK20H090  2019 12 21.3389  2.579108  0.995085  312.8825  213.1202  137.8704  20201112  18.0  2.0  A/2020 H9                                                MPEC 2020-L06
    CK20J010  2021 04 18.4787  3.355360  1.000503  341.7238  226.5762  142.2967  20201112   8.5  3.2  C/2020 J1 (SONEAR)                                       MPEC 2020-UR0
    CK20K010  2023 05  9.1470  3.076088  0.999662  213.9377   94.3753   89.6505  20201112   5.5  4.0  C/2020 K1 (PANSTARRS)                                    MPEC 2020-UR0
    CK20K020  2018 12 30.6729  8.177098  1.000000   34.2348  285.5819   89.7510             6.5  4.0  C/2020 K2 (PANSTARRS)                                    MPEC 2020-KF5
    CK20K030  2020 06  1.0031  1.583069  1.000000   64.4924   28.3546  129.0152            14.5  4.0  C/2020 K3 (Leonard)                                      MPEC 2020-KF9
    CK20K040  2020 03  3.7400  1.752803  0.926632  308.7640  264.0943  125.5620  20201112  16.5  4.0  C/2020 K4 (PANSTARRS)                                    MPEC 2020-L06
    CK20K050  2021 06  5.5936  1.535393  1.001484  249.6003   86.1611   67.1637  20201112  11.0  4.0  C/2020 K5 (PANSTARRS)                                    MPEC 2020-L06
    CK20K060  2021 09 14.6078  5.869359  1.003844   44.2178  291.5306  103.6532  20201112   8.0  4.0  C/2020 K6 (Rankin)                                       MPEC 2020-UR0
    CK20K070  2021 10  5.3027  5.644571  1.000000   60.8413  287.4776   34.5520             8.0  4.0  C/2020 K7 (PANSTARRS)                                    MPEC 2020-L09
    CK20K080  2020 09 14.5160  0.474610  1.000317  260.0549  181.5193   31.4137  20201112  15.0  3.2  C/2020 K8 (Catalina-ATLAS)                               MPEC 2020-SI8
    PK20K090  2021 02 11.7539  2.849493  0.321811  196.8624  166.2391   23.2073  20201112  12.5  4.0  P/2020 K9 (Lemmon-PANSTARRS)                             MPEC 2020-UR0
    PK20M010  2019 12 21.5186  2.661533  0.477818   67.9665  142.9300    8.6358  20201112  14.5  4.0  P/2020 M1 (PANSTARRS)                                    MPEC 2020-K19
    PK20M020  2020 06 19.2893  2.276924  0.404910   14.4029    8.2096   10.9284  20201112  12.0  4.0  P/2020 M2 (Lemmon)                                       MPEC 2020-N01
    CK20M030  2020 10 25.6235  1.268246  0.952710  328.4460   71.2502   23.4735  20201112  14.5  4.0  C/2020 M3 (ATLAS)                                        MPEC 2020-UR0
    AK20M040  2020 11 23.7364  5.952386  0.998934  104.6354  348.6316  160.1255  20201112  14.5  2.0  A/2020 M4                                                MPEC 2020-K19
    CK20M050  2021 08 19.8875  3.004481  0.999652  126.3368  352.0979   93.2224  20201112   9.0  4.0  C/2020 M5 (ATLAS)                                        MPEC 2020-UR0
    CK20N010  2021 03 12.2397  1.320759  1.000402  186.7707  279.9843   29.7038  20201112  12.5  4.0  C/2020 N1 (PANSTARRS)                                    MPEC 2020-UR0
    CK20N020  2020 08 23.6701  1.793948  0.983436  331.2014  257.0717  161.0337  20201112  16.0  3.2  C/2020 N2 (ATLAS)                                        MPEC 2020-UR0
    PK20O010  2020 05  3.3301  2.328995  0.119674  104.7110  175.9776    5.2248  20201112  15.5  4.0  P/2020 O1 (Lemmon-PANSTARRS)                             MPEC 2020-SI8
    CK20O020  2021 08 28.1731  4.864176  1.001385   10.2311  256.7524   71.7525  20201112   8.0  3.2  C/2020 O2 (Amaral)                                       MPEC 2020-UR0
    PK20O030  2021 01 29.1619  4.166713  0.105663   81.3892  266.8789    8.4414  20201112  12.0  4.0  P/2020 O3 (PANSTARRS)                                    MPEC 2020-SI8
    CK20P010  2020 10 20.1795  0.342199  1.000252    8.8972   53.5373   45.0518  20201112  14.0  3.2  C/2020 P1 (NEOWISE)                                      MPEC 2020-UR0
    CK20P030  2021 04 20.9366  6.812469  0.998909   82.2469   19.4997   61.8880  20201112   6.0  4.0  C/2020 P3 (ATLAS)                                        MPEC 2020-UR0
    CK20P04a  2020 08  8.2179  0.090757  1.002092  177.4772  175.2059   26.3318  20201112   5.3  6.0  C/2020 P4-A (SOHO)                                       MPEC 2020-QN1
    CK20P04b  2020 08  8.1271  0.098303  1.000486  173.4046  171.4986   27.3018  20201112   0.0  6.0  C/2020 P4-B (SOHO)                                       MPEC 2020-QN1
    CK20P04c  2020 08  6.8014  0.086551  1.012861  116.7350  164.0403   37.4581  20201112  -1.6  6.0  C/2020 P4-C (SOHO)                                       MPEC 2020-QN1
    CK20Q010  2020 08 14.5709  1.314477  0.975049    9.8050   52.3605  142.9240  20201112  14.0  4.0  C/2020 Q1 (Borisov)                                      MPEC 2020-SI8
    CK20R020  2022 02 24.1811  4.693338  0.988056  211.6777  195.0941   53.2199  20201112   9.0  4.0  C/2020 R2 (PANSTARRS)                                    MPEC 2020-UR0
    CK20R040  2021 03  1.9397  1.028598  0.989414   46.7132  323.2727  164.4630  20201112  13.5  4.0  C/2020 R4 (ATLAS)                                        MPEC 2020-UR0
    PK20R050  2020 05 28.2592  3.413164  0.314493   82.3311  272.9703   11.4543  20201112   9.5  6.0  P/2020 R5 (PANSTARRS)                                    MPEC 2020-UR0
    CK20R060  2019 09 10.0599  3.129231  0.992844  272.0013   12.1751   82.8220  20201112  11.0  4.0  C/2020 R6 (Rankin)                                       MPEC 2020-UR0
    CK20R070  2022 09 16.2594  2.962383  1.000288  347.7136  268.2894  114.8929  20201112   7.0  3.2  C/2020 R7 (ATLAS)                                        MPEC 2020-UR0
    PK20S010  2021 01 16.9184  2.947300  0.507152  254.8736  129.4591   13.7340  20201112  14.0  4.0  P/2020 S1 (PANSTARRS)                                    MPEC 2020-UR0
    CK20S020  2020 12 21.9339  1.756035  0.827323  202.2609  197.6867   22.3961  20201112  17.0  4.0  C/2020 S2 (PANSTARRS)                                    MPEC 2020-UR0
    CK20S030  2020 12 12.6695  0.398665  0.998099  349.8586  223.0046   19.8620  20201112  13.5  3.2  C/2020 S3 (Erasmus)                                      MPEC 2020-UR0
    CK20S040  2023 02  7.9740  3.359440  1.002730   21.1175  117.6930   20.5770  20201112   8.5  3.2  C/2020 S4 (PANSTARRS)                                    MPEC 2020-UR0
